[{"OBJECT_ID":"1981-053PZ","OBJECT_NAME":"COSMOS 1275 DEB","NORAD_CAT_ID":"42113","OBJECT_TYPE":"DEBRIS","PERIOD":"105.211","INCLINATION":"82.7472","ECCENTRICITY":"0.02012840","MEAN_MOTION":"13.68683364","TLE_LINE1":"1 42113U 81053PZ  21271.28077616  .00000345  00000-0  33314-3 0  9997","TLE_LINE2":"2 42113  82.7472  99.0836 0201284  44.3379 126.5586 13.68683364391931"},{"OBJECT_ID":"1981-053QA","OBJECT_NAME":"COSMOS 1275 DEB","NORAD_CAT_ID":"42114","OBJECT_TYPE":"DEBRIS","PERIOD":"101.567","INCLINATION":"82.8210","ECCENTRICITY":"0.00507870","MEAN_MOTION":"14.17789186","TLE_LINE1":"1 42114U 81053QA  21272.44304475  .00001347  00000-0  64421-3 0  9999","TLE_LINE2":"2 42114  82.8210 265.0335 0050787 116.7081  34.1496 14.17789186405547"},{"OBJECT_ID":"1981-053QB","OBJECT_NAME":"COSMOS 1275 DEB","NORAD_CAT_ID":"42115","OBJECT_TYPE":"DEBRIS","PERIOD":"102.857","INCLINATION":"82.6634","ECCENTRICITY":"0.00587650","MEAN_MOTION":"14.00005126","TLE_LINE1":"1 42115U 81053QB  21271.53038773  .00000892  00000-0  58781-3 0  9990","TLE_LINE2":"2 42115  82.6634 192.7284 0058765 257.7973 101.6610 14.00005126400826"},{"OBJECT_ID":"1981-053QC","OBJECT_NAME":"COSMOS 1275 DEB","NORAD_CAT_ID":"42116","OBJECT_TYPE":"DEBRIS","PERIOD":"101.081","INCLINATION":"83.1334","ECCENTRICITY":"0.00228010","MEAN_MOTION":"14.24597503","TLE_LINE1":"1 42116U 81053QC  21268.31026427  .00001027  00000-0  43393-3 0  9990","TLE_LINE2":"2 42116  83.1334 283.6133 0022801  65.9317 307.1344 14.24597503658526"},{"OBJECT_ID":"1981-053QD","OBJECT_NAME":"COSMOS 1275 DEB","NORAD_CAT_ID":"42117","OBJECT_TYPE":"DEBRIS","PERIOD":"103.376","INCLINATION":"82.9848","ECCENTRICITY":"0.00171350","MEAN_MOTION":"13.92974675","TLE_LINE1":"1 42117U 81053QD  21271.86807719  .00000273  00000-0  19806-3 0  9990","TLE_LINE2":"2 42117  82.9848 323.2927 0017135 255.2918 104.6349 13.92974675398878"},{"OBJECT_ID":"1981-053QE","OBJECT_NAME":"COSMOS 1275 DEB","NORAD_CAT_ID":"42118","OBJECT_TYPE":"DEBRIS","PERIOD":"101.390","INCLINATION":"82.9636","ECCENTRICITY":"0.00623580","MEAN_MOTION":"14.20258933","TLE_LINE1":"1 42118U 81053QE  21272.06168993  .00001495  00000-0  67867-3 0  9995","TLE_LINE2":"2 42118  82.9636 133.9037 0062358  13.5136 346.7697 14.20258933924555"},{"OBJECT_ID":"1981-053QF","OBJECT_NAME":"COSMOS 1275 DEB","NORAD_CAT_ID":"42119","OBJECT_TYPE":"DEBRIS","PERIOD":"104.051","INCLINATION":"83.1754","ECCENTRICITY":"0.00456980","MEAN_MOTION":"13.83931753","TLE_LINE1":"1 42119U 81053QF  21271.16552853  .00000524  00000-0  45443-3 0  9996","TLE_LINE2":"2 42119  83.1754  58.4750 0045698 350.7445   9.2869 13.83931753803790"},{"OBJECT_ID":"1981-053QG","OBJECT_NAME":"COSMOS 1275 DEB","NORAD_CAT_ID":"42120","OBJECT_TYPE":"DEBRIS","PERIOD":"106.324","INCLINATION":"82.9339","ECCENTRICITY":"0.01950270","MEAN_MOTION":"13.54352461","TLE_LINE1":"1 42120U 81053QG  21270.57260426  .00000287  00000-0  35671-3 0  9992","TLE_LINE2":"2 42120  82.9339 205.3228 0195027 343.1802  16.2933 13.54352461860644"},{"OBJECT_ID":"1981-053QH","OBJECT_NAME":"COSMOS 1275 DEB","NORAD_CAT_ID":"42121","OBJECT_TYPE":"DEBRIS","PERIOD":"102.592","INCLINATION":"82.9290","ECCENTRICITY":"0.00492560","MEAN_MOTION":"14.03619809","TLE_LINE1":"1 42121U 81053QH  21262.97657268  .00000756  00000-0  46610-3 0  9998","TLE_LINE2":"2 42121  82.9290 162.9914 0049256  70.3997 290.2483 14.03619809374031"},{"OBJECT_ID":"1981-053QJ","OBJECT_NAME":"COSMOS 1275 DEB","NORAD_CAT_ID":"42122","OBJECT_TYPE":"DEBRIS","PERIOD":"104.331","INCLINATION":"82.9414","ECCENTRICITY":"0.00947640","MEAN_MOTION":"13.80224747","TLE_LINE1":"1 42122U 81053QJ  21270.14951351  .00000389  00000-0  34665-3 0  9996","TLE_LINE2":"2 42122  82.9414 219.3848 0094764  10.7629 349.5528 13.80224747394900"},{"OBJECT_ID":"1981-053QL","OBJECT_NAME":"COSMOS 1275 DEB","NORAD_CAT_ID":"42124","OBJECT_TYPE":"DEBRIS","PERIOD":"105.542","INCLINATION":"83.0103","ECCENTRICITY":"0.01315570","MEAN_MOTION":"13.64383985","TLE_LINE1":"1 42124U 81053QL  21271.37622750  .00000559  00000-0  64192-3 0  9999","TLE_LINE2":"2 42124  83.0103 136.1277 0131557 326.7119 154.5975 13.64383985390769"},{"OBJECT_ID":"1981-053QM","OBJECT_NAME":"COSMOS 1275 DEB","NORAD_CAT_ID":"42125","OBJECT_TYPE":"DEBRIS","PERIOD":"102.804","INCLINATION":"82.9406","ECCENTRICITY":"0.00538580","MEAN_MOTION":"14.00720588","TLE_LINE1":"1 42125U 81053QM  21272.09226697  .00000759  00000-0  49249-3 0  9998","TLE_LINE2":"2 42125  82.9406 201.0483 0053858 155.2635 205.1136 14.00720588355645"},{"OBJECT_ID":"1981-053QN","OBJECT_NAME":"COSMOS 1275 DEB","NORAD_CAT_ID":"42126","OBJECT_TYPE":"DEBRIS","PERIOD":"106.321","INCLINATION":"83.1699","ECCENTRICITY":"0.01625840","MEAN_MOTION":"13.54392491","TLE_LINE1":"1 42126U 81053QN  21271.51938749  .00001039  00000-0  13806-2 0  9994","TLE_LINE2":"2 42126  83.1699 189.7212 0162584 156.9216 328.1234 13.54392491388259"},{"OBJECT_ID":"1981-053QP","OBJECT_NAME":"COSMOS 1275 DEB","NORAD_CAT_ID":"42127","OBJECT_TYPE":"DEBRIS","PERIOD":"102.217","INCLINATION":"82.8359","ECCENTRICITY":"0.00348730","MEAN_MOTION":"14.08761553","TLE_LINE1":"1 42127U 81053QP  21270.48798669  .00000875  00000-0  49569-3 0  9998","TLE_LINE2":"2 42127  82.8359 346.5316 0034873  91.3849 282.9257 14.08761553368372"},{"OBJECT_ID":"1981-053QQ","OBJECT_NAME":"COSMOS 1275 DEB","NORAD_CAT_ID":"42128","OBJECT_TYPE":"DEBRIS","PERIOD":"103.368","INCLINATION":"82.9307","ECCENTRICITY":"0.00247650","MEAN_MOTION":"13.93086397","TLE_LINE1":"1 42128U 81053QQ  21271.65028678  .00000401  00000-0  29563-3 0  9992","TLE_LINE2":"2 42128  82.9307 220.0056 0024765 207.1307 329.9980 13.93086397885579"},{"OBJECT_ID":"1981-053QR","OBJECT_NAME":"COSMOS 1275 DEB","NORAD_CAT_ID":"42129","OBJECT_TYPE":"DEBRIS","PERIOD":"103.864","INCLINATION":"82.8448","ECCENTRICITY":"0.00645040","MEAN_MOTION":"13.86428228","TLE_LINE1":"1 42129U 81053QR  21272.22389068  .00000776  00000-0  64531-3 0  9999","TLE_LINE2":"2 42129  82.8448 228.8555 0064504 152.0300 208.4354 13.86428228873704"},{"OBJECT_ID":"1981-053QS","OBJECT_NAME":"COSMOS 1275 DEB","NORAD_CAT_ID":"42130","OBJECT_TYPE":"DEBRIS","PERIOD":"102.214","INCLINATION":"82.8647","ECCENTRICITY":"0.00240100","MEAN_MOTION":"14.08805642","TLE_LINE1":"1 42130U 81053QS  21271.06985103  .00000966  00000-0  54914-3 0  9999","TLE_LINE2":"2 42130  82.8647  26.5445 0024010  18.6518 341.5531 14.08805642402982"},{"OBJECT_ID":"1981-053QT","OBJECT_NAME":"COSMOS 1275 DEB","NORAD_CAT_ID":"42131","OBJECT_TYPE":"DEBRIS","PERIOD":"101.065","INCLINATION":"82.8929","ECCENTRICITY":"0.00242680","MEAN_MOTION":"14.24819718","TLE_LINE1":"1 42131U 81053QT  21268.95754005  .00001576  00000-0  66697-3 0  9998","TLE_LINE2":"2 42131  82.8929 338.6274 0024268 147.0670  27.6707 14.24819718407220"},{"OBJECT_ID":"1981-053QU","OBJECT_NAME":"COSMOS 1275 DEB","NORAD_CAT_ID":"42132","OBJECT_TYPE":"DEBRIS","PERIOD":"105.474","INCLINATION":"83.1610","ECCENTRICITY":"0.01397220","MEAN_MOTION":"13.65259167","TLE_LINE1":"1 42132U 81053QU  21268.60643460  .00000125  00000-0  12779-3 0  9994","TLE_LINE2":"2 42132  83.1610  15.8036 0139722 307.6251  51.2285 13.65259167893361"},{"OBJECT_ID":"1981-053QV","OBJECT_NAME":"COSMOS 1275 DEB","NORAD_CAT_ID":"42133","OBJECT_TYPE":"DEBRIS","PERIOD":"106.199","INCLINATION":"83.1307","ECCENTRICITY":"0.01663770","MEAN_MOTION":"13.55950110","TLE_LINE1":"1 42133U 81053QV  21272.38126926  .00000436  00000-0  55184-3 0  9990","TLE_LINE2":"2 42133  83.1307 137.4256 0166377 189.3034 170.5021 13.55950110886809"},{"OBJECT_ID":"1981-053QW","OBJECT_NAME":"COSMOS 1275 DEB","NORAD_CAT_ID":"42134","OBJECT_TYPE":"DEBRIS","PERIOD":"106.516","INCLINATION":"83.0086","ECCENTRICITY":"0.01829010","MEAN_MOTION":"13.51905378","TLE_LINE1":"1 42134U 81053QW  21268.97415329  .00000624  00000-0  83916-3 0  9992","TLE_LINE2":"2 42134  83.0086   0.4545 0182901 210.0419 149.0134 13.51905378342088"},{"OBJECT_ID":"1981-053QX","OBJECT_NAME":"COSMOS 1275 DEB","NORAD_CAT_ID":"42135","OBJECT_TYPE":"DEBRIS","PERIOD":"105.118","INCLINATION":"83.1177","ECCENTRICITY":"0.01143050","MEAN_MOTION":"13.69895491","TLE_LINE1":"1 42135U 81053QX  21269.26060959  .00000538  00000-0  56992-3 0  9999","TLE_LINE2":"2 42135  83.1177 260.3048 0114305  21.1086 339.4729 13.69895491394366"},{"OBJECT_ID":"1981-053QY","OBJECT_NAME":"COSMOS 1275 DEB","NORAD_CAT_ID":"42136","OBJECT_TYPE":"DEBRIS","PERIOD":"103.645","INCLINATION":"83.0275","ECCENTRICITY":"0.00705970","MEAN_MOTION":"13.89355581","TLE_LINE1":"1 42136U 81053QY  21268.59259197  .00000731  00000-0  57561-3 0  9997","TLE_LINE2":"2 42136  83.0275 212.6664 0070597 187.2826 172.7320 13.89355581397225"},{"OBJECT_ID":"1981-053RA","OBJECT_NAME":"COSMOS 1275 DEB","NORAD_CAT_ID":"42138","OBJECT_TYPE":"DEBRIS","PERIOD":"103.913","INCLINATION":"83.1447","ECCENTRICITY":"0.01002140","MEAN_MOTION":"13.85771967","TLE_LINE1":"1 42138U 81053RA  21254.04042123  .00000701  00000-0  57582-3 0  9993","TLE_LINE2":"2 42138  83.1447 156.5820 0100214 216.9836 142.4391 13.85771967929577"},{"OBJECT_ID":"1981-053RB","OBJECT_NAME":"COSMOS 1275 DEB","NORAD_CAT_ID":"42139","OBJECT_TYPE":"DEBRIS","PERIOD":"103.593","INCLINATION":"82.9980","ECCENTRICITY":"0.00504670","MEAN_MOTION":"13.90052997","TLE_LINE1":"1 42139U 81053RB  21272.22909183  .00000518  00000-0  40384-3 0  9990","TLE_LINE2":"2 42139  82.9980  95.0628 0050467 251.3652 108.2029 13.90052997350570"},{"OBJECT_ID":"1981-053RC","OBJECT_NAME":"COSMOS 1275 DEB","NORAD_CAT_ID":"42140","OBJECT_TYPE":"DEBRIS","PERIOD":"106.881","INCLINATION":"83.1399","ECCENTRICITY":"0.02057410","MEAN_MOTION":"13.47289143","TLE_LINE1":"1 42140U 81053RC  21271.61773264  .00000395  00000-0  54578-3 0  9996","TLE_LINE2":"2 42140  83.1399 230.1672 0205741 128.6130 233.3634 13.47289143844942"}]